start=new Date('2021-11-09T00:00:00.000Z').valueOf();
sats=[{"BSTAR":"0.00038173000000","SITE":"AFETR","MEAN_MOTION_DOT":"0.00005408","FILE":"3209620","ECCENTRICITY":"0.00014360","DECAY_DATE":null,"OBJECT_TYPE":"PAYLOAD","ELEMENT_SET_NO":"999","TLE_LINE1":"1 45589U 20025BL  21312.77998686  .00005408  00000-0  38173-3 0  9991","LAUNCH_DATE":"2020-04-22","MEAN_ANOMALY":"298.2736","CLASSIFICATION_TYPE":"U","CENTER_NAME":"EARTH","MEAN_MOTION_DDOT":"0.0000000000000","GP_ID":"189300683","MEAN_ELEMENT_THEORY":"SGP4","OBJECT_ID":"2020-025BL","MEAN_MOTION":"15.06396014","REV_AT_EPOCH":"8707","ARG_OF_PERICENTER":"61.8398","REF_FRAME":"TEME","SEMIMAJOR_AXIS":"6925.361","NORAD_CAT_ID":"45589","TIME_SYSTEM":"UTC","EPOCH":"2021-11-08T18:43:10.864704","PERIAPSIS":"546.231","COUNTRY_CODE":"US","APOAPSIS":"548.220","INCLINATION":"53.0553","EPHEMERIS_TYPE":"0","TLE_LINE2":"2 45589  53.0553 338.0920 0001436  61.8398 298.2736 15.06396014 87072","PERIOD":"95.592","OBJECT_NAME":"STARLINK-1364","RA_OF_ASC_NODE":"338.0920","RCS_SIZE":"LARGE"},{"TLE_LINE2":"2 45590  53.0547   7.7248 0001393  79.6476 280.4670 15.06398090 86688","OBJECT_NAME":"STARLINK-1365","PERIOD":"95.592","RA_OF_ASC_NODE":"7.7248","RCS_SIZE":"LARGE","NORAD_CAT_ID":"45590","EPOCH":"2021-11-08T20:41:17.790144","TIME_SYSTEM":"UTC","PERIAPSIS":"546.255","COUNTRY_CODE":"US","EPHEMERIS_TYPE":"0","INCLINATION":"53.0547","APOAPSIS":"548.184","REF_FRAME":"TEME","SEMIMAJOR_AXIS":"6925.354","GP_ID":"189300933","MEAN_ELEMENT_THEORY":"SGP4","MEAN_MOTION_DDOT":"0.0000000000000","CENTER_NAME":"EARTH","OBJECT_ID":"2020-025BM","ARG_OF_PERICENTER":"79.6476","MEAN_MOTION":"15.06398090","REV_AT_EPOCH":"8668","MEAN_ANOMALY":"280.4670","CLASSIFICATION_TYPE":"U","ELEMENT_SET_NO":"999","TLE_LINE1":"1 45590U 20025BM  21312.86201146  .00006979  00000-0  48699-3 0  9999","LAUNCH_DATE":"2020-04-22","DECAY_DATE":null,"OBJECT_TYPE":"PAYLOAD","SITE":"AFETR","BSTAR":"0.00048699000000","MEAN_MOTION_DOT":"0.00006979","FILE":"3209620","ECCENTRICITY":"0.00013930"},{"PERIOD":"95.591","OBJECT_NAME":"STARLINK-1441","TLE_LINE2":"2 45658  53.0531 328.1363 0001234  67.1339 292.9780 15.06410399 80308","RCS_SIZE":"LARGE","RA_OF_ASC_NODE":"328.1363","PERIAPSIS":"546.327","COUNTRY_CODE":"US","NORAD_CAT_ID":"45658","TIME_SYSTEM":"UTC","EPOCH":"2021-11-08T18:28:35.433984","APOAPSIS":"548.036","INCLINATION":"53.0531","EPHEMERIS_TYPE":"0","REF_FRAME":"TEME","SEMIMAJOR_AXIS":"6925.317","OBJECT_ID":"2020-035B","CENTER_NAME":"EARTH","MEAN_MOTION_DDOT":"0.0000000000000","GP_ID":"189300939","MEAN_ELEMENT_THEORY":"SGP4","MEAN_MOTION":"15.06410399","REV_AT_EPOCH":"8030","ARG_OF_PERICENTER":"67.1339","MEAN_ANOMALY":"292.9780","CLASSIFICATION_TYPE":"U","ELEMENT_SET_NO":"999","LAUNCH_DATE":"2020-06-04","TLE_LINE1":"1 45658U 20035B   21312.76985456  .00009476  00000-0  65404-3 0  9995","DECAY_DATE":null,"OBJECT_TYPE":"PAYLOAD","SITE":"AFETR","BSTAR":"0.00065404000000","ECCENTRICITY":"0.00012340","FILE":"3209620","MEAN_MOTION_DOT":"0.00009476"},{"REF_FRAME":"TEME","SEMIMAJOR_AXIS":"6923.537","MEAN_ELEMENT_THEORY":"SGP4","GP_ID":"189301691","MEAN_MOTION_DDOT":"0.0000000000000","CENTER_NAME":"EARTH","OBJECT_ID":"2020-035C","MEAN_MOTION":"15.06991254","REV_AT_EPOCH":"8029","ARG_OF_PERICENTER":"70.5690","TLE_LINE2":"2 45659  53.0557 328.0963 0001393  70.5690 289.5450 15.06991254 80294","OBJECT_NAME":"STARLINK-1442","PERIOD":"95.555","RA_OF_ASC_NODE":"328.0963","RCS_SIZE":"LARGE","TIME_SYSTEM":"UTC","EPOCH":"2021-11-08T18:37:45.360480","NORAD_CAT_ID":"45659","PERIAPSIS":"544.438","COUNTRY_CODE":"US","EPHEMERIS_TYPE":"0","INCLINATION":"53.0557","APOAPSIS":"546.366","DECAY_DATE":null,"OBJECT_TYPE":"PAYLOAD","SITE":"AFETR","BSTAR":"0.00379700000000","MEAN_MOTION_DOT":"0.00057656","ECCENTRICITY":"0.00013930","FILE":"3209620","MEAN_ANOMALY":"289.5450","CLASSIFICATION_TYPE":"U","ELEMENT_SET_NO":"999","TLE_LINE1":"1 45659U 20035C   21312.77621945  .00057656  00000-0  37970-2 0  9996","LAUNCH_DATE":"2020-06-04"},{"TLE_LINE2":"2 45660  53.0535 328.0968 0001279  85.4724 274.6411 15.06391102 80303","OBJECT_NAME":"STARLINK-1443","PERIOD":"95.593","RA_OF_ASC_NODE":"328.0968","RCS_SIZE":"LARGE","TIME_SYSTEM":"UTC","EPOCH":"2021-11-08T18:44:30.611040","NORAD_CAT_ID":"45660","PERIAPSIS":"546.355","COUNTRY_CODE":"US","INCLINATION":"53.0535","EPHEMERIS_TYPE":"0","APOAPSIS":"548.127","REF_FRAME":"TEME","SEMIMAJOR_AXIS":"6925.376","GP_ID":"189301442","MEAN_ELEMENT_THEORY":"SGP4","MEAN_MOTION_DDOT":"0.0000000000000","CENTER_NAME":"EARTH","OBJECT_ID":"2020-035D","REV_AT_EPOCH":"8030","MEAN_MOTION":"15.06391102","ARG_OF_PERICENTER":"85.4724","MEAN_ANOMALY":"274.6411","CLASSIFICATION_TYPE":"U","ELEMENT_SET_NO":"999","TLE_LINE1":"1 45660U 20035D   21312.78090985  .00007338  00000-0  51112-3 0  9990","LAUNCH_DATE":"2020-06-04","DECAY_DATE":null,"OBJECT_TYPE":"PAYLOAD","BSTAR":"0.00051112000000","SITE":"AFETR","MEAN_MOTION_DOT":"0.00007338","ECCENTRICITY":"0.00012790","FILE":"3209620"},{"REV_AT_EPOCH":"8025","MEAN_MOTION":"15.06390223","ARG_OF_PERICENTER":"62.2105","GP_ID":"189270204","MEAN_ELEMENT_THEORY":"SGP4","CENTER_NAME":"EARTH","MEAN_MOTION_DDOT":"0.0000000000000","OBJECT_ID":"2020-035E","SEMIMAJOR_AXIS":"6925.379","REF_FRAME":"TEME","INCLINATION":"53.0524","EPHEMERIS_TYPE":"0","APOAPSIS":"548.329","TIME_SYSTEM":"UTC","EPOCH":"2021-11-08T11:13:21.152352","NORAD_CAT_ID":"45661","PERIAPSIS":"546.158","COUNTRY_CODE":"US","RA_OF_ASC_NODE":"329.5002","RCS_SIZE":"LARGE","TLE_LINE2":"2 45661  53.0524 329.5002 0001568  62.2105 297.9043 15.06390223 80250","OBJECT_NAME":"STARLINK-1444","PERIOD":"95.593","MEAN_MOTION_DOT":"0.00006763","FILE":"3209238","ECCENTRICITY":"0.00015680","SITE":"AFETR","BSTAR":"0.00047260000000","OBJECT_TYPE":"PAYLOAD","DECAY_DATE":null,"TLE_LINE1":"1 45661U 20035E   21312.46760593  .00006763  00000-0  47260-3 0  9995","LAUNCH_DATE":"2020-06-04","ELEMENT_SET_NO":"999","CLASSIFICATION_TYPE":"U","MEAN_ANOMALY":"297.9043"},{"MEAN_MOTION_DOT":"0.00005378","FILE":"3209620","ECCENTRICITY":"0.00012830","BSTAR":"0.00037971000000","SITE":"AFETR","OBJECT_TYPE":"PAYLOAD","DECAY_DATE":null,"TLE_LINE1":"1 45662U 20035F   21312.74773686  .00005378  00000-0  37971-3 0  9993","LAUNCH_DATE":"2020-06-04","ELEMENT_SET_NO":"999","CLASSIFICATION_TYPE":"U","MEAN_ANOMALY":"280.2918","ARG_OF_PERICENTER":"79.8216","MEAN_MOTION":"15.06393098","REV_AT_EPOCH":"8029","MEAN_ELEMENT_THEORY":"SGP4","GP_ID":"189300440","MEAN_MOTION_DDOT":"0.0000000000000","CENTER_NAME":"EARTH","OBJECT_ID":"2020-035F","SEMIMAJOR_AXIS":"6925.370","REF_FRAME":"TEME","INCLINATION":"53.0531","EPHEMERIS_TYPE":"0","APOAPSIS":"548.123","TIME_SYSTEM":"UTC","EPOCH":"2021-11-08T17:56:44.464704","NORAD_CAT_ID":"45662","COUNTRY_CODE":"US","PERIAPSIS":"546.346","RA_OF_ASC_NODE":"328.2413","RCS_SIZE":"LARGE","TLE_LINE2":"2 45662  53.0531 328.2413 0001283  79.8216 280.2918 15.06393098 80295","OBJECT_NAME":"STARLINK-1445","PERIOD":"95.593"},{"RCS_SIZE":"LARGE","RA_OF_ASC_NODE":"328.2195","PERIOD":"95.592","OBJECT_NAME":"STARLINK-1446","TLE_LINE2":"2 45663  53.0536 328.2195 0001479  60.5707 299.5430 15.06409327 80292","APOAPSIS":"548.209","INCLINATION":"53.0536","EPHEMERIS_TYPE":"0","PERIAPSIS":"546.161","COUNTRY_CODE":"US","EPOCH":"2021-11-08T18:02:01.645152","TIME_SYSTEM":"UTC","NORAD_CAT_ID":"45663","SEMIMAJOR_AXIS":"6925.320","REF_FRAME":"TEME","MEAN_MOTION":"15.06409327","REV_AT_EPOCH":"8029","ARG_OF_PERICENTER":"60.5707","OBJECT_ID":"2020-035G","MEAN_MOTION_DDOT":"0.0000000000000","CENTER_NAME":"EARTH","MEAN_ELEMENT_THEORY":"SGP4","GP_ID":"189301192","CLASSIFICATION_TYPE":"U","MEAN_ANOMALY":"299.5430","LAUNCH_DATE":"2020-06-04","TLE_LINE1":"1 45663U 20035G   21312.75140793  .00005798  00000-0  40769-3 0  9997","ELEMENT_SET_NO":"999","OBJECT_TYPE":"PAYLOAD","DECAY_DATE":null,"FILE":"3209620","ECCENTRICITY":"0.00014790","MEAN_MOTION_DOT":"0.00005798","BSTAR":"0.00040769000000","SITE":"AFETR"},{"DECAY_DATE":null,"OBJECT_TYPE":"PAYLOAD","BSTAR":"0.00080785000000","SITE":"AFETR","MEAN_MOTION_DOT":"0.00011777","FILE":"3209620","ECCENTRICITY":"0.00015040","MEAN_ANOMALY":"296.2640","CLASSIFICATION_TYPE":"U","ELEMENT_SET_NO":"999","TLE_LINE1":"1 45665U 20035J   21312.78459821  .00011777  00000-0  80785-3 0  9993","LAUNCH_DATE":"2020-06-04","REF_FRAME":"TEME","SEMIMAJOR_AXIS":"6925.295","MEAN_ELEMENT_THEORY":"SGP4","GP_ID":"189301942","MEAN_MOTION_DDOT":"0.0000000000000","CENTER_NAME":"EARTH","OBJECT_ID":"2020-035J","MEAN_MOTION":"15.06417414","ARG_OF_PERICENTER":"63.8504","REV_AT_EPOCH":"8029","TLE_LINE2":"2 45665  53.0530 328.0685 0001504  63.8504 296.2640 15.06417414 80293","OBJECT_NAME":"STARLINK-1448","PERIOD":"95.591","RA_OF_ASC_NODE":"328.0685","RCS_SIZE":"LARGE","EPOCH":"2021-11-08T18:49:49.285344","TIME_SYSTEM":"UTC","NORAD_CAT_ID":"45665","COUNTRY_CODE":"US","PERIAPSIS":"546.119","EPHEMERIS_TYPE":"0","INCLINATION":"53.0530","APOAPSIS":"548.202"},{"COUNTRY_CODE":"US","PERIAPSIS":"546.285","NORAD_CAT_ID":"45666","EPOCH":"2021-11-08T11:01:22.552320","TIME_SYSTEM":"UTC","EPHEMERIS_TYPE":"0","INCLINATION":"53.0549","APOAPSIS":"548.215","OBJECT_NAME":"STARLINK-1449","PERIOD":"95.593","TLE_LINE2":"2 45666  53.0549 329.5305 0001393  64.1308 295.9824 15.06388054 80243","RCS_SIZE":"LARGE","RA_OF_ASC_NODE":"329.5305","OBJECT_ID":"2020-035K","MEAN_ELEMENT_THEORY":"SGP4","GP_ID":"189269705","CENTER_NAME":"EARTH","MEAN_MOTION_DDOT":"0.0000000000000","ARG_OF_PERICENTER":"64.1308","MEAN_MOTION":"15.06388054","REV_AT_EPOCH":"8024","REF_FRAME":"TEME","SEMIMAJOR_AXIS":"6925.385","ELEMENT_SET_NO":"999","LAUNCH_DATE":"2020-06-04","TLE_LINE1":"1 45666U 20035K   21312.45928880  .00003216  00000-0  23476-3 0  9997","MEAN_ANOMALY":"295.9824","CLASSIFICATION_TYPE":"U","BSTAR":"0.00023476000000","SITE":"AFETR","ECCENTRICITY":"0.00013930","FILE":"3209238","MEAN_MOTION_DOT":"0.00003216","DECAY_DATE":null,"OBJECT_TYPE":"PAYLOAD"}];
